[{"OBJECT_NAME":"STARLINK-32923","OBJECT_ID":"2025-037W","EPOCH":"2026-03-09T22:39:33.205248","MEAN_MOTION":14.98352474,"ECCENTRICITY":0.00028109,"INCLINATION":70.0035,"RA_OF_ASC_NODE":353.6756,"ARG_OF_PERICENTER":267.795,"MEAN_ANOMALY":92.2888,"EPHEMERIS_TYPE":0,"CLASSIFICATION_TYPE":"U","NORAD_CAT_ID":63097,"ELEMENT_SET_NO":999,"REV_AT_EPOCH":5864,"BSTAR":0.00026772695,"MEAN_MOTION_DOT":3.105e-5,"MEAN_MOTION_DDOT":0},{"OBJECT_NAME":"CZ-4B DEB","OBJECT_ID":"1999-057BZ","EPOCH":"2026-03-09T10:47:31.286688","MEAN_MOTION":14.9004764,"ECCENTRICITY":0.00449145,"INCLINATION":98.5631,"RA_OF_ASC_NODE":129.7133,"ARG_OF_PERICENTER":286.2462,"MEAN_ANOMALY":73.3815,"EPHEMERIS_TYPE":0,"CLASSIFICATION_TYPE":"U","NORAD_CAT_ID":26187,"ELEMENT_SET_NO":999,"REV_AT_EPOCH":39955,"BSTAR":0.00034061798,"MEAN_MOTION_DOT":3.283e-5,"MEAN_MOTION_DDOT":0}]
